SL-16 R/B               
1 22566U 93016B   26059.94528812  .00000330  00000+0  19387-3 0  9997
2 22566  71.0052 233.5474 0011185 326.4891  33.5523 14.15303221700937
COSMOS 2242             
1 22626U 93024A   26060.07745446  .00002046  00000+0  17747-3 0  9997
2 22626  82.5160 274.9559 0015846 339.6210  20.4378 14.96507706779104
SL-16 R/B               
1 22803U 93059B   26060.14832101  .00000180  00000+0  11300-3 0  9991
2 22803  70.9913  29.1372 0018880 228.4495 131.5011 14.17231387678324
ARIANE 40 R/B           
1 22830U 93061H   26060.17924057  .00000220  00000+0  96544-4 0  9998
2 22830  98.4935 129.2342 0009725 313.1801  46.8570 14.32855640692889
COSMOS 2278             
1 23087U 94023A   26059.82797365  .00000366  00000+0  21605-3 0  9998
2 23087  71.0536 193.6356 0007540  31.2671 328.8899 14.14373294643551
SL-16 R/B               
1 23088U 94023B   26060.16119924 -.00000032  00000+0  82872-5 0  9993
2 23088  70.9987  88.7993 0005500 293.7749  66.2797 14.15013450644889
SL-16 R/B               
1 23343U 94074B   26060.06192727  .00000543  00000+0  79464-4 0  9992
2 23343  97.7121  91.2287 0005241 243.8930 143.1276 14.79396099685970
SL-16 R/B               
1 23405U 94077B   26060.14613264 -.00000233  00000+0 -94508-4 0  9991
2 23405  70.9849  10.4612 0003558 223.1149 136.9696 14.15563088615025
ARIANE 40+ R/B          
1 23561U 95021B   26060.19895301  .00000314  00000+0  11400-3 0  9990
2 23561  98.4515 131.7960 0007274 159.1383 259.9947 14.39765130618029
SL-16 R/B               
1 23705U 95058B   26059.79936447 -.00000168  00000+0 -61508-4 0  9995
2 23705  71.0208 198.9183 0011073 141.5555 218.6359 14.15492891566593
SL-16 R/B               
1 24298U 96051B   26059.81759014  .00000071  00000+0  65300-4 0  9998
2 24298  70.7591 194.0161 0015880 161.0048 199.1668 14.12412950520398
ORBVIEW 2 (SEASTAR)     
1 24883U 97037A   26060.05362243  .00000341  00000+0  13484-3 0  9990
2 24883  98.8552 224.1374 0003214  89.4035 270.7518 14.35486918507232
